IRIDIUM 119             
1 42959U 17061E   25250.77350396  .00000310  00000+0  10377-3 0  9992
2 42959  86.4015 143.3259 0001904  89.7261 270.4153 14.34217832414331
IRIDIUM 107             
1 42960U 17061F   25250.93207866  .00000332  00000+0  11154-3 0  9993
2 42960  86.4013 143.2796 0002358  94.8506 265.2959 14.34217165414367
IRIDIUM 132             
1 42961U 17061G   25250.79887453  .00000136  00000+0  41483-4 0  9995
2 42961  86.4014 143.3165 0002225  87.8034 272.3417 14.34216338414348
IRIDIUM 136             
1 42962U 17061H   25250.97012572  .00000203  00000+0  65487-4 0  9993
2 42962  86.4013 143.2502 0002125  90.0235 270.1204 14.34216811414380
IRIDIUM 139             
1 42963U 17061J   25250.97646444  .00000253  00000+0  83457-4 0  9997
2 42963  86.4015 143.3051 0002300  88.5453 271.6007 14.34216018414399
IRIDIUM 125             
1 42964U 17061K   25250.96378111  .00000191  00000+0  61076-4 0  9994
2 42964  86.4016 143.3662 0002044  99.4492 260.6935 14.34217189414408
IRIDIUM 135             
1 43070U 17083A   25250.93790616  .00000118  00000+0  35089-4 0  9996
2 43070  86.3905  80.0092 0002164  83.8938 276.2504 14.34217717403693
IRIDIUM 138             
1 43071U 17083B   25250.89350595 -.00000006  00000+0 -92355-5 0  9998
2 43071  86.3897  79.6879 0001546  96.9437 263.1934 14.34217689403671
